{"fetched_at":"2026-07-15T17:46:51.301Z","source":"https://celestrak.org/NORAD/elements/gp.php?GROUP=spire&FORMAT=JSON","constellation":"spire","records":[{"OBJECT_NAME":"LEMUR-2-LEIA-PHILIP","OBJECT_ID":"2025-052AN","EPOCH":"2026-07-14T22:28:04.831392","CLASSIFICATION_TYPE":"U","MEAN_MOTION":14.97391318,"ECCENTRICITY":0.0005096,"INCLINATION":97.6806,"RA_OF_ASC_NODE":87.4167,"ARG_OF_PERICENTER":119.8953,"MEAN_ANOMALY":240.2776,"EPHEMERIS_TYPE":0,"NORAD_CAT_ID":63246,"ELEMENT_SET_NO":999,"REV_AT_EPOCH":7282,"BSTAR":0.000021592,"MEAN_MOTION_DOT":0.00000193,"MEAN_MOTION_DDOT":0},{"OBJECT_NAME":"LEMUR-2-LIA-MARTIN","OBJECT_ID":"2025-052AQ","EPOCH":"2026-07-15T03:08:57.429600","CLASSIFICATION_TYPE":"U","MEAN_MOTION":14.98029975,"ECCENTRICITY":0.0005305,"INCLINATION":97.687,"RA_OF_ASC_NODE":88.127,"ARG_OF_PERICENTER":90.0857,"MEAN_ANOMALY":270.0973,"EPHEMERIS_TYPE":0,"NORAD_CAT_ID":63248,"ELEMENT_SET_NO":999,"REV_AT_EPOCH":7286,"BSTAR":0.00018314,"MEAN_MOTION_DOT":0.00002106,"MEAN_MOTION_DDOT":0},{"OBJECT_NAME":"LEMUR-2-DELOITTE-1","OBJECT_ID":"2025-052BB","EPOCH":"2026-07-15T04:16:59.937600","CLASSIFICATION_TYPE":"U","MEAN_MOTION":14.97781793,"ECCENTRICITY":0.000256,"INCLINATION":97.6882,"RA_OF_ASC_NODE":88.5037,"ARG_OF_PERICENTER":64.7937,"MEAN_ANOMALY":295.3551,"EPHEMERIS_TYPE":0,"NORAD_CAT_ID":63259,"ELEMENT_SET_NO":999,"REV_AT_EPOCH":7288,"BSTAR":0.0001996,"MEAN_MOTION_DOT":0.00002285,"MEAN_MOTION_DDOT":0},{"OBJECT_NAME":"LEMUR-2-EMERSONROSE","OBJECT_ID":"2025-052BD","EPOCH":"2026-07-15T03:01:20.347680","CLASSIFICATION_TYPE":"U","MEAN_MOTION":14.99290579,"ECCENTRICITY":0.0002726,"INCLINATION":97.6885,"RA_OF_ASC_NODE":89.0649,"ARG_OF_PERICENTER":60.8639,"MEAN_ANOMALY":299.2857,"EPHEMERIS_TYPE":0,"NORAD_CAT_ID":63261,"ELEMENT_SET_NO":999,"REV_AT_EPOCH":7292,"BSTAR":0.00022486,"MEAN_MOTION_DOT":0.00002686,"MEAN_MOTION_DDOT":0},{"OBJECT_NAME":"LEMUR-2-MARACHE-FRAN","OBJECT_ID":"2025-052BE","EPOCH":"2026-07-15T03:34:06.481632","CLASSIFICATION_TYPE":"U","MEAN_MOTION":15.00315109,"ECCENTRICITY":0.0005171,"INCLINATION":97.6837,"RA_OF_ASC_NODE":89.4551,"ARG_OF_PERICENTER":252.5472,"MEAN_ANOMALY":107.5186,"EPHEMERIS_TYPE":0,"NORAD_CAT_ID":63262,"ELEMENT_SET_NO":999,"REV_AT_EPOCH":7295,"BSTAR":0.0001387,"MEAN_MOTION_DOT":0.0000168,"MEAN_MOTION_DDOT":0},{"OBJECT_NAME":"LEMUR-2-THEFALCONER","OBJECT_ID":"2025-052BG","EPOCH":"2026-07-15T03:24:38.030112","CLASSIFICATION_TYPE":"U","MEAN_MOTION":14.9756321,"ECCENTRICITY":0.0000289,"INCLINATION":97.6831,"RA_OF_ASC_NODE":88.0589,"ARG_OF_PERICENTER":292.8068,"MEAN_ANOMALY":67.3123,"EPHEMERIS_TYPE":0,"NORAD_CAT_ID":63264,"ELEMENT_SET_NO":999,"REV_AT_EPOCH":7287,"BSTAR":0.000085317,"MEAN_MOTION_DOT":0.00000938,"MEAN_MOTION_DDOT":0},{"OBJECT_NAME":"LEMUR-2-UNTITLED-SC","OBJECT_ID":"2025-061A","EPOCH":"2026-07-14T22:06:56.736000","CLASSIFICATION_TYPE":"U","MEAN_MOTION":15.1364543,"ECCENTRICITY":0.0019212,"INCLINATION":97.5652,"RA_OF_ASC_NODE":171.0866,"ARG_OF_PERICENTER":163.9754,"MEAN_ANOMALY":196.2089,"EPHEMERIS_TYPE":0,"NORAD_CAT_ID":63351,"ELEMENT_SET_NO":999,"REV_AT_EPOCH":7178,"BSTAR":0.000092972,"MEAN_MOTION_DOT":0.00001611,"MEAN_MOTION_DDOT":0},{"OBJECT_NAME":"LEMUR-2-ESPERANZA","OBJECT_ID":"2025-061B","EPOCH":"2026-07-14T21:31:27.406272","CLASSIFICATION_TYPE":"U","MEAN_MOTION":15.13751282,"ECCENTRICITY":0.0018824,"INCLINATION":97.5659,"RA_OF_ASC_NODE":171.1621,"ARG_OF_PERICENTER":163.2431,"MEAN_ANOMALY":196.9426,"EPHEMERIS_TYPE":0,"NORAD_CAT_ID":63352,"ELEMENT_SET_NO":999,"REV_AT_EPOCH":7178,"BSTAR":0.00010314,"MEAN_MOTION_DOT":0.00001799,"MEAN_MOTION_DDOT":0},{"OBJECT_NAME":"LEMUR-2-KREMPEL-BRO2","OBJECT_ID":"2025-061C","EPOCH":"2026-07-14T23:34:03.434016","CLASSIFICATION_TYPE":"U","MEAN_MOTION":15.14178,"ECCENTRICITY":0.0019953,"INCLINATION":97.5705,"RA_OF_ASC_NODE":171.8154,"ARG_OF_PERICENTER":155.9783,"MEAN_ANOMALY":204.2383,"EPHEMERIS_TYPE":0,"NORAD_CAT_ID":63353,"ELEMENT_SET_NO":999,"REV_AT_EPOCH":7181,"BSTAR":0.000091459,"MEAN_MOTION_DOT":0.00001608,"MEAN_MOTION_DDOT":0},{"OBJECT_NAME":"LEMUR-2-THERMORAPTOR","OBJECT_ID":"2025-061D","EPOCH":"2026-07-15T03:51:32.878944","CLASSIFICATION_TYPE":"U","MEAN_MOTION":15.14261275,"ECCENTRICITY":0.0019723,"INCLINATION":97.5711,"RA_OF_ASC_NODE":172.0744,"ARG_OF_PERICENTER":154.1868,"MEAN_ANOMALY":206.0352,"EPHEMERIS_TYPE":0,"NORAD_CAT_ID":63354,"ELEMENT_SET_NO":999,"REV_AT_EPOCH":7184,"BSTAR":0.00010936,"MEAN_MOTION_DOT":0.00001941,"MEAN_MOTION_DDOT":0},{"OBJECT_NAME":"LEMUR-2-NEUROSPICY","OBJECT_ID":"2025-061E","EPOCH":"2026-07-14T20:47:03.321888","CLASSIFICATION_TYPE":"U","MEAN_MOTION":15.1437954,"ECCENTRICITY":0.0017457,"INCLINATION":97.5638,"RA_OF_ASC_NODE":171.386,"ARG_OF_PERICENTER":158.0548,"MEAN_ANOMALY":202.1435,"EPHEMERIS_TYPE":0,"NORAD_CAT_ID":63355,"ELEMENT_SET_NO":999,"REV_AT_EPOCH":7180,"BSTAR":0.00011332,"MEAN_MOTION_DOT":0.00002019,"MEAN_MOTION_DDOT":0},{"OBJECT_NAME":"LEMUR-2-TILLINFINITY","OBJECT_ID":"2025-061F","EPOCH":"2026-07-14T21:22:28.682400","CLASSIFICATION_TYPE":"U","MEAN_MOTION":15.14963133,"ECCENTRICITY":0.0019037,"INCLINATION":97.5623,"RA_OF_ASC_NODE":171.7204,"ARG_OF_PERICENTER":146.8297,"MEAN_ANOMALY":213.4133,"EPHEMERIS_TYPE":0,"NORAD_CAT_ID":63356,"ELEMENT_SET_NO":999,"REV_AT_EPOCH":7183,"BSTAR":0.00011684,"MEAN_MOTION_DOT":0.0000212,"MEAN_MOTION_DDOT":0},{"OBJECT_NAME":"LEMUR-2-KREMPEL-BRO1","OBJECT_ID":"2025-061G","EPOCH":"2026-07-14T20:49:22.423296","CLASSIFICATION_TYPE":"U","MEAN_MOTION":15.14770587,"ECCENTRICITY":0.0019664,"INCLINATION":97.5623,"RA_OF_ASC_NODE":171.6057,"ARG_OF_PERICENTER":148.3273,"MEAN_ANOMALY":211.9146,"EPHEMERIS_TYPE":0,"NORAD_CAT_ID":63357,"ELEMENT_SET_NO":999,"REV_AT_EPOCH":7182,"BSTAR":0.00011295,"MEAN_MOTION_DOT":0.00002037,"MEAN_MOTION_DDOT":0},{"OBJECT_NAME":"LEMUR-2-LANGER2SPACE","OBJECT_ID":"2025-061H","EPOCH":"2026-07-14T21:35:32.440128","CLASSIFICATION_TYPE":"U","MEAN_MOTION":15.14463886,"ECCENTRICITY":0.0017397,"INCLINATION":97.563,"RA_OF_ASC_NODE":171.4405,"ARG_OF_PERICENTER":156.1893,"MEAN_ANOMALY":204.0148,"EPHEMERIS_TYPE":0,"NORAD_CAT_ID":63358,"ELEMENT_SET_NO":999,"REV_AT_EPOCH":7181,"BSTAR":0.000105,"MEAN_MOTION_DOT":0.0000187,"MEAN_MOTION_DDOT":0},{"OBJECT_NAME":"LEMUR-2-BALTO","OBJECT_ID":"2025-052BH","EPOCH":"2026-07-15T03:11:35.564928","CLASSIFICATION_TYPE":"U","MEAN_MOTION":15.00363697,"ECCENTRICITY":0.0005121,"INCLINATION":97.6929,"RA_OF_ASC_NODE":89.4276,"ARG_OF_PERICENTER":327.8612,"MEAN_ANOMALY":32.2299,"EPHEMERIS_TYPE":0,"NORAD_CAT_ID":63395,"ELEMENT_SET_NO":999,"REV_AT_EPOCH":7295,"BSTAR":0.00020692,"MEAN_MOTION_DOT":0.00002538,"MEAN_MOTION_DDOT":0},{"OBJECT_NAME":"LEMUR-2-KRISH","OBJECT_ID":"2025-135AK","EPOCH":"2026-07-14T06:59:13.109280","CLASSIFICATION_TYPE":"U","MEAN_MOTION":14.96445154,"ECCENTRICITY":0.00013907,"INCLINATION":97.7772,"RA_OF_ASC_NODE":309.9867,"ARG_OF_PERICENTER":95.6584,"MEAN_ANOMALY":264.4796,"EPHEMERIS_TYPE":0,"NORAD_CAT_ID":64561,"ELEMENT_SET_NO":999,"REV_AT_EPOCH":5797,"BSTAR":0.00017575838,"MEAN_MOTION_DOT":0.00001935,"MEAN_MOTION_DDOT":0}]}
